SHENZHOU-22             
1 66645U 25272A   26073.00269975  .00029757  00000+0  34787-3 0  9992
2 66645  41.4663 181.9138 0006689 299.3968  60.6202 15.60904690267527
SOYUZ-MS 28             
1 66664U 25275A   26074.19246378  .00009711  00000+0  18872-3 0  9994
2 66664  51.6330  45.1519 0006363 192.7288 167.3540 15.48288531554520
DUPLEX                  
1 66906U 98067XS  26074.17220984  .00034193  00000+0  47619-3 0  9998
2 66906  51.6292  42.0190 0002751 137.6554 222.4650 15.56607115 15987
ISS OBJECT XT           
1 66907U 98067XT  26074.05627168  .00202137  00000+0  15333-2 0  9993
2 66907  51.6247  38.2251 0004688 115.4311 244.7173 15.71174897 16025
ISS OBJECT XU           
1 66908U 98067XU  26074.05401917  .00202702  00000+0  15285-2 0  9990
2 66908  51.6248  38.2054 0004987 118.2627 241.8875 15.71313389 16029
SILVERSAT               
1 66909U 98067XV  26074.17151702  .00265810  00000+0  17149-2 0  9998
2 66909  51.6239  36.7379 0005444 117.7755 242.3797 15.74772085 16055
ISS OBJECT XW           
1 66910U 98067XW  26074.18095813  .00173075  00000+0  13629-2 0  9991
2 66910  51.6239  37.5499 0005353 120.8061 239.3464 15.70370803 16047
ISS OBJECT XX           
1 66911U 98067XX  26074.15640945  .00337340  00000+0  18160-2 0  9993
2 66911  51.6207  35.8642 0006906 121.9057 238.2617 15.78660751 16057
ISS OBJECT XY           
1 66912U 98067XY  26073.94811659  .00114837  00000+0  11444-2 0  9994
2 66912  51.6268  40.5165 0003436 120.1038 240.0298 15.64801890 15975
KNACKSAT-2              
1 67683U 98067XZ  26074.20054093  .00047534  00000+0  76829-3 0  9999
2 67683  51.6309  44.4573 0009578 205.3064 154.7457 15.52323412  5648
GXIBA-1                 
1 67684U 98067YA  26074.16359621  .00089870  00000+0  12893-2 0  9999
2 67684  51.6308  44.2101 0011613 194.5368 165.5291 15.55303960  5647
CORAL                   
1 67685U 98067YB  26074.19471975  .00051896  00000+0  82451-3 0  9995
2 67685  51.6319  44.4177 0011534 201.7026 158.3476 15.52739690  5644
ISS OBJECT YC           
1 67686U 98067YC  26074.18708647  .00062587  00000+0  96936-3 0  9996
2 67686  51.6317  44.3691 0008363 170.9974 189.1167 15.53399872  5642
LEOPARD                 
1 67687U 98067YD  26074.26189947  .00047430  00000+0  76143-3 0  9990
2 67687  51.6313  44.1193 0008142 174.4595 185.6486 15.52527164  5570
ISS OBJECT YE           
1 67688U 98067YE  26074.19056187  .00057311  00000+0  89873-3 0  9995
2 67688  51.6315  44.3921 0008255 171.8524 188.2602 15.53094941  5563
CREW DRAGON 12          
1 67796U 26031A   26074.19246378  .00009711  00000+0  18872-3 0  9992
2 67796  51.6330  45.1519 0006363 192.7288 167.3540 15.48288531557081
